[{"OBJECT_NAME":"STARLINK-11365 [DTC]","OBJECT_ID":"2025-024H","EPOCH":"2026-03-09T14:03:29.021184","MEAN_MOTION":15.70871886,"ECCENTRICITY":0.0001911,"INCLINATION":42.9993,"RA_OF_ASC_NODE":181.7792,"ARG_OF_PERICENTER":281.1969,"MEAN_ANOMALY":78.8684,"EPHEMERIS_TYPE":0,"CLASSIFICATION_TYPE":"U","NORAD_CAT_ID":62886,"ELEMENT_SET_NO":999,"REV_AT_EPOCH":6345,"BSTAR":0.00057319,"MEAN_MOTION_DOT":0.00073856,"MEAN_MOTION_DDOT":0},{"OBJECT_NAME":"CZ-6A DEB","OBJECT_ID":"2024-140AY","EPOCH":"2026-03-09T23:18:41.702400","MEAN_MOTION":15.62067616,"ECCENTRICITY":0.0034385,"INCLINATION":89.347,"RA_OF_ASC_NODE":305.7787,"ARG_OF_PERICENTER":51.1175,"MEAN_ANOMALY":309.3152,"EPHEMERIS_TYPE":0,"CLASSIFICATION_TYPE":"U","NORAD_CAT_ID":60647,"ELEMENT_SET_NO":999,"REV_AT_EPOCH":8292,"BSTAR":0.0060093898,"MEAN_MOTION_DOT":0.00575832,"MEAN_MOTION_DDOT":0}]
